[{"OBJECT_NAME":"CENTISPACE-1 OBJECT K","OBJECT_ID":"2026-060K","EPOCH":"2026-04-04T15:27:21.758112","MEAN_MOTION":14.75283234,"ECCENTRICITY":0.0014769,"INCLINATION":54.98,"RA_OF_ASC_NODE":335.6935,"ARG_OF_PERICENTER":336.0624,"MEAN_ANOMALY":23.9687,"EPHEMERIS_TYPE":0,"CLASSIFICATION_TYPE":"U","NORAD_CAT_ID":68359,"ELEMENT_SET_NO":999,"REV_AT_EPOCH":192,"BSTAR":4.3130657e-5,"MEAN_MOTION_DOT":8.4e-7,"MEAN_MOTION_DDOT":0},{"OBJECT_NAME":"RASSVET-3 1","OBJECT_ID":"2026-061A","EPOCH":"2026-04-11T20:50:12.861024","MEAN_MOTION":15.86023838,"ECCENTRICITY":0.0022307,"INCLINATION":82.2945,"RA_OF_ASC_NODE":87.0224,"ARG_OF_PERICENTER":5.9126,"MEAN_ANOMALY":354.2402,"EPHEMERIS_TYPE":0,"CLASSIFICATION_TYPE":"U","NORAD_CAT_ID":68360,"ELEMENT_SET_NO":999,"REV_AT_EPOCH":304,"BSTAR":0.00029558,"MEAN_MOTION_DOT":0.00074058,"MEAN_MOTION_DDOT":7.1711e-7},{"OBJECT_NAME":"RASSVET-3 2","OBJECT_ID":"2026-061B","EPOCH":"2026-04-11T20:45:02.026656","MEAN_MOTION":15.90339091,"ECCENTRICITY":0.0023801,"INCLINATION":82.2968,"RA_OF_ASC_NODE":87.0201,"ARG_OF_PERICENTER":3.1549,"MEAN_ANOMALY":356.9868,"EPHEMERIS_TYPE":0,"CLASSIFICATION_TYPE":"U","NORAD_CAT_ID":68361,"ELEMENT_SET_NO":999,"REV_AT_EPOCH":304,"BSTAR":0.00032603,"MEAN_MOTION_DOT":0.00101469,"MEAN_MOTION_DDOT":2.4893e-6},{"OBJECT_NAME":"RASSVET-3 3","OBJECT_ID":"2026-061C","EPOCH":"2026-04-11T20:44:46.686336","MEAN_MOTION":15.90349401,"ECCENTRICITY":0.0023595,"INCLINATION":82.2966,"RA_OF_ASC_NODE":87.0194,"ARG_OF_PERICENTER":2.9942,"MEAN_ANOMALY":357.1466,"EPHEMERIS_TYPE":0,"CLASSIFICATION_TYPE":"U","NORAD_CAT_ID":68362,"ELEMENT_SET_NO":999,"REV_AT_EPOCH":304,"BSTAR":0.00033055,"MEAN_MOTION_DOT":0.00102878,"MEAN_MOTION_DDOT":2.5915e-6},{"OBJECT_NAME":"RASSVET-3 4","OBJECT_ID":"2026-061D","EPOCH":"2026-04-11T20:44:50.437824","MEAN_MOTION":15.90157745,"ECCENTRICITY":0.0023952,"INCLINATION":82.297,"RA_OF_ASC_NODE":87.02,"ARG_OF_PERICENTER":2.8769,"MEAN_ANOMALY":357.2636,"EPHEMERIS_TYPE":0,"CLASSIFICATION_TYPE":"U","NORAD_CAT_ID":68363,"ELEMENT_SET_NO":999,"REV_AT_EPOCH":304,"BSTAR":0.00029087,"MEAN_MOTION_DOT":0.00089761,"MEAN_MOTION_DDOT":1.6945e-6},{"OBJECT_NAME":"RASSVET-3 5","OBJECT_ID":"2026-061E","EPOCH":"2026-04-11T20:44:20.455296","MEAN_MOTION":15.90294668,"ECCENTRICITY":0.0023703,"INCLINATION":82.2967,"RA_OF_ASC_NODE":87.019,"ARG_OF_PERICENTER":2.8876,"MEAN_ANOMALY":357.2528,"EPHEMERIS_TYPE":0,"CLASSIFICATION_TYPE":"U","NORAD_CAT_ID":68364,"ELEMENT_SET_NO":999,"REV_AT_EPOCH":304,"BSTAR":0.00032112,"MEAN_MOTION_DOT":0.000997,"MEAN_MOTION_DDOT":2.362e-6},{"OBJECT_NAME":"RASSVET-3 6","OBJECT_ID":"2026-061F","EPOCH":"2026-04-11T20:42:33.926688","MEAN_MOTION":15.90443937,"ECCENTRICITY":0.00235,"INCLINATION":82.2969,"RA_OF_ASC_NODE":87.0172,"ARG_OF_PERICENTER":3.1635,"MEAN_ANOMALY":356.9781,"EPHEMERIS_TYPE":0,"CLASSIFICATION_TYPE":"U","NORAD_CAT_ID":68365,"ELEMENT_SET_NO":999,"REV_AT_EPOCH":304,"BSTAR":0.00030796,"MEAN_MOTION_DOT":0.00096315,"MEAN_MOTION_DDOT":2.1331e-6},{"OBJECT_NAME":"RASSVET-3 7","OBJECT_ID":"2026-061G","EPOCH":"2026-04-11T20:43:46.911360","MEAN_MOTION":15.90338566,"ECCENTRICITY":0.0023504,"INCLINATION":82.2967,"RA_OF_ASC_NODE":87.0186,"ARG_OF_PERICENTER":2.9317,"MEAN_ANOMALY":357.2087,"EPHEMERIS_TYPE":0,"CLASSIFICATION_TYPE":"U","NORAD_CAT_ID":68366,"ELEMENT_SET_NO":999,"REV_AT_EPOCH":304,"BSTAR":0.00032321,"MEAN_MOTION_DOT":0.00100528,"MEAN_MOTION_DDOT":2.4222e-6},{"OBJECT_NAME":"RASSVET-3 8","OBJECT_ID":"2026-061H","EPOCH":"2026-04-11T20:44:03.385248","MEAN_MOTION":15.90306084,"ECCENTRICITY":0.0023517,"INCLINATION":82.2968,"RA_OF_ASC_NODE":87.0186,"ARG_OF_PERICENTER":2.8019,"MEAN_ANOMALY":357.338,"EPHEMERIS_TYPE":0,"CLASSIFICATION_TYPE":"U","NORAD_CAT_ID":68367,"ELEMENT_SET_NO":999,"REV_AT_EPOCH":304,"BSTAR":0.00032254,"MEAN_MOTION_DOT":0.00100155,"MEAN_MOTION_DDOT":2.3946e-6},{"OBJECT_NAME":"RASSVET-3 9","OBJECT_ID":"2026-061J","EPOCH":"2026-04-11T20:37:38.913888","MEAN_MOTION":15.90815564,"ECCENTRICITY":0.0022949,"INCLINATION":82.2956,"RA_OF_ASC_NODE":87.0104,"ARG_OF_PERICENTER":4.3815,"MEAN_ANOMALY":355.7654,"EPHEMERIS_TYPE":0,"CLASSIFICATION_TYPE":"U","NORAD_CAT_ID":68368,"ELEMENT_SET_NO":999,"REV_AT_EPOCH":304,"BSTAR":0.00031342,"MEAN_MOTION_DOT":0.0009978,"MEAN_MOTION_DDOT":2.3872e-6},{"OBJECT_NAME":"RASSVET-3 10","OBJECT_ID":"2026-061K","EPOCH":"2026-04-11T20:43:23.534976","MEAN_MOTION":15.90250815,"ECCENTRICITY":0.0023539,"INCLINATION":82.297,"RA_OF_ASC_NODE":87.0182,"ARG_OF_PERICENTER":2.8984,"MEAN_ANOMALY":357.2419,"EPHEMERIS_TYPE":0,"CLASSIFICATION_TYPE":"U","NORAD_CAT_ID":68369,"ELEMENT_SET_NO":999,"REV_AT_EPOCH":304,"BSTAR":0.00030014,"MEAN_MOTION_DOT":0.00092969,"MEAN_MOTION_DDOT":1.9035e-6},{"OBJECT_NAME":"RASSVET-3 11","OBJECT_ID":"2026-061L","EPOCH":"2026-04-11T17:41:28.381056","MEAN_MOTION":15.90256698,"ECCENTRICITY":0.0023363,"INCLINATION":82.2971,"RA_OF_ASC_NODE":87.1601,"ARG_OF_PERICENTER":3.2703,"MEAN_ANOMALY":356.8717,"EPHEMERIS_TYPE":0,"CLASSIFICATION_TYPE":"U","NORAD_CAT_ID":68370,"ELEMENT_SET_NO":999,"REV_AT_EPOCH":302,"BSTAR":0.00031635,"MEAN_MOTION_DOT":0.00097964,"MEAN_MOTION_DDOT":2.2394e-6},{"OBJECT_NAME":"RASSVET-3 12","OBJECT_ID":"2026-061M","EPOCH":"2026-04-11T20:41:21.450912","MEAN_MOTION":15.90596156,"ECCENTRICITY":0.0022961,"INCLINATION":82.2968,"RA_OF_ASC_NODE":87.0159,"ARG_OF_PERICENTER":2.7034,"MEAN_ANOMALY":357.4357,"EPHEMERIS_TYPE":0,"CLASSIFICATION_TYPE":"U","NORAD_CAT_ID":68371,"ELEMENT_SET_NO":999,"REV_AT_EPOCH":304,"BSTAR":0.00032917,"MEAN_MOTION_DOT":0.00103608,"MEAN_MOTION_DDOT":2.6551e-6},{"OBJECT_NAME":"RASSVET-3 13","OBJECT_ID":"2026-061N","EPOCH":"2026-04-11T20:40:47.512992","MEAN_MOTION":15.90691538,"ECCENTRICITY":0.002255,"INCLINATION":82.2965,"RA_OF_ASC_NODE":87.015,"ARG_OF_PERICENTER":2.7431,"MEAN_ANOMALY":357.396,"EPHEMERIS_TYPE":0,"CLASSIFICATION_TYPE":"U","NORAD_CAT_ID":68372,"ELEMENT_SET_NO":999,"REV_AT_EPOCH":304,"BSTAR":0.00031749,"MEAN_MOTION_DOT":0.00100348,"MEAN_MOTION_DDOT":2.4232e-6},{"OBJECT_NAME":"RASSVET-3 14","OBJECT_ID":"2026-061P","EPOCH":"2026-04-11T20:39:32.800320","MEAN_MOTION":15.90777974,"ECCENTRICITY":0.0022536,"INCLINATION":82.2966,"RA_OF_ASC_NODE":87.0141,"ARG_OF_PERICENTER":2.6611,"MEAN_ANOMALY":357.4776,"EPHEMERIS_TYPE":0,"CLASSIFICATION_TYPE":"U","NORAD_CAT_ID":68373,"ELEMENT_SET_NO":999,"REV_AT_EPOCH":304,"BSTAR":0.00032334,"MEAN_MOTION_DOT":0.00102641,"MEAN_MOTION_DDOT":2.5918e-6},{"OBJECT_NAME":"RASSVET-3 15","OBJECT_ID":"2026-061Q","EPOCH":"2026-04-11T20:38:30.828192","MEAN_MOTION":15.90968184,"ECCENTRICITY":0.0022074,"INCLINATION":82.2963,"RA_OF_ASC_NODE":87.0128,"ARG_OF_PERICENTER":2.6687,"MEAN_ANOMALY":357.4698,"EPHEMERIS_TYPE":0,"CLASSIFICATION_TYPE":"U","NORAD_CAT_ID":68374,"ELEMENT_SET_NO":999,"REV_AT_EPOCH":304,"BSTAR":0.00032639,"MEAN_MOTION_DOT":0.00104522,"MEAN_MOTION_DDOT":2.7384e-6}]
