CENTISPACE-1 OBJECT K   
1 68359U 26060K   26094.64400183  .00000084  00000+0  43131-4 0  9999
2 68359  54.9800 335.6935 0014769 336.0624  23.9687 14.75283234  1920
RASSVET-3 1             
1 68360U 26061A   26101.86820441  .00074058  71711-6  29558-3 0  9990
2 68360  82.2945  87.0224 0022307   5.9126 354.2402 15.86023838  3046
RASSVET-3 2             
1 68361U 26061B   26101.86460679  .00101469  24893-5  32603-3 0  9994
2 68361  82.2968  87.0201 0023801   3.1549 356.9868 15.90339091  3047
RASSVET-3 3             
1 68362U 26061C   26101.86442924  .00102878  25915-5  33055-3 0  9991
2 68362  82.2966  87.0194 0023595   2.9942 357.1466 15.90349401  3044
RASSVET-3 4             
1 68363U 26061D   26101.86447266  .00089761  16945-5  29087-3 0  9994
2 68363  82.2970  87.0200 0023952   2.8769 357.2636 15.90157745  3049
RASSVET-3 5             
1 68364U 26061E   26101.86412564  .00099700  23620-5  32112-3 0  9993
2 68364  82.2967  87.0190 0023703   2.8876 357.2528 15.90294668  3043
RASSVET-3 6             
1 68365U 26061F   26101.86289267  .00096315  21331-5  30796-3 0  9998
2 68365  82.2969  87.0172 0023500   3.1635 356.9781 15.90443937  3040
RASSVET-3 7             
1 68366U 26061G   26101.86373740  .00100528  24222-5  32321-3 0  9999
2 68366  82.2967  87.0186 0023504   2.9317 357.2087 15.90338566  3046
RASSVET-3 8             
1 68367U 26061H   26101.86392807  .00100155  23946-5  32254-3 0  9998
2 68367  82.2968  87.0186 0023517   2.8019 357.3380 15.90306084  3047
RASSVET-3 9             
1 68368U 26061J   26101.85947817  .00099780  23872-5  31342-3 0  9991
2 68368  82.2956  87.0104 0022949   4.3815 355.7654 15.90815564  3048
RASSVET-3 10            
1 68369U 26061K   26101.86346684  .00092969  19035-5  30014-3 0  9991
2 68369  82.2970  87.0182 0023539   2.8984 357.2419 15.90250815  3045
RASSVET-3 11            
1 68370U 26061L   26101.73713404  .00097964  22394-5  31635-3 0  9999
2 68370  82.2971  87.1601 0023363   3.2703 356.8717 15.90256698  3023
RASSVET-3 12            
1 68371U 26061M   26101.86205383  .00103608  26551-5  32917-3 0  9992
2 68371  82.2968  87.0159 0022961   2.7034 357.4357 15.90596156  3046
RASSVET-3 13            
1 68372U 26061N   26101.86166103  .00100348  24232-5  31749-3 0  9993
2 68372  82.2965  87.0150 0022550   2.7431 357.3960 15.90691538  3049
RASSVET-3 14            
1 68373U 26061P   26101.86079630  .00102641  25918-5  32334-3 0  9993
2 68373  82.2966  87.0141 0022536   2.6611 357.4776 15.90777974  3049
RASSVET-3 15            
1 68374U 26061Q   26101.86007903  .00104522  27384-5  32639-3 0  9995
2 68374  82.2963  87.0128 0022074   2.6687 357.4698 15.90968184  3040
